NORAD_CAT_ID,OBJECT_NAME,OBJECT_TYPE,EPOCH,MEAN_MOTION,ECCENTRICITY,INCLINATION,RA_OF_ASC_NODE,ARG_OF_PERICENTER,MEAN_ANOMALY,BSTAR,MEAN_MOTION_DOT,MEAN_MOTION_DDOT,TLE_LINE0,TLE_LINE1,TLE_LINE2,SEMIMAJOR_AXIS,PERIOD,APOGEE,PERIGEE,DECAYED
56476.0,STARLINK-5545,PAYLOAD,2024-03-21 04:38:13,14.98334828,0.0003068,69.9984,136.119,269.2583,90.8224,-6.4339e-05,-8.61e-06,0.0,0 STARLINK-5545,1 56476U 23064AE  24081.19321316 -.00000861  00000-0 -64339-4 0  9990,2 56476  69.9984 136.1190 0003068 269.2583  90.8224 14.98334828 48476,6950.178,96.107,574.175,569.911,0.0
56476.0,STARLINK-5545,PAYLOAD,2024-03-21 12:38:53,14.9834166,0.0002844,69.9989,135.2764,268.9696,91.1137,4.7024e-05,4.68e-06,0.0,0 STARLINK-5545,1 56476U 23064AE  24081.52700454  .00000468  00000-0  47024-4 0  9994,2 56476  69.9989 135.2764 0002844 268.9696  91.1137 14.98341660 48525,6950.157,96.106,573.998,570.045,0.0
56476.0,STARLINK-5545,PAYLOAD,2024-03-22 04:40:13,14.98331279,0.0002862,69.9987,133.5926,268.8897,91.1934,0.00015666,1.777e-05,0.0,0 STARLINK-5545,1 56476U 23064AE  24082.19460538  .00001777  00000-0  15666-3 0  9994,2 56476  69.9987 133.5926 0002862 268.8897  91.1934 14.98331279 48627,6950.189,96.107,574.043,570.065,0.0
56476.0,STARLINK-5545,PAYLOAD,2024-03-22 12:40:53,14.98336172,0.0002777,69.9989,132.7513,268.3452,91.7389,0.0001982,2.273e-05,0.0,0 STARLINK-5545,1 56476U 23064AE  24082.52840019  .00002273  00000-0  19820-3 0  9995,2 56476  69.9989 132.7513 0002777 268.3452  91.7389 14.98336172 48312,6950.174,96.107,573.969,570.109,0.0
56476.0,STARLINK-5545,PAYLOAD,2024-03-23 04:42:15,14.98325561,0.000249,70.0004,131.0702,242.5716,117.519,-9.4746e-05,-1.223e-05,0.0,0 STARLINK-5545,1 56476U 23064AE  24083.19601529 -.00001223  00000-0 -94746-4 0  9997,2 56476  70.0004 131.0702 0002490 242.5716 117.5190 14.98325561 48771,6950.207,96.107,573.802,570.341,0.0
56476.0,STARLINK-5545,PAYLOAD,2024-03-23 12:42:56,14.98316939,0.0002661,69.9998,130.2277,249.7901,110.2972,-0.00018591,-2.31e-05,0.0,0 STARLINK-5545,1 56476U 23064AE  24083.52982476 -.00002310  00000-0 -18591-3 0  9998,2 56476  69.9998 130.2277 0002661 249.7901 110.2972 14.98316939 48826,6950.233,96.108,573.948,570.249,0.0
56476.0,STARLINK-5545,PAYLOAD,2024-03-23 20:43:36,14.98326995,0.0002938,69.9989,129.3843,265.8946,94.1878,-0.00010439,-1.338e-05,0.0,0 STARLINK-5545,1 56476U 23064AE  24083.86361696 -.00001338  00000-0 -10439-3 0  9992,2 56476  69.9989 129.3843 0002938 265.8946  94.1878 14.98326995 48872,6950.202,96.107,574.109,570.025,0.0
56476.0,STARLINK-5545,PAYLOAD,2024-03-24 04:44:16,14.98336113,0.0003064,69.9985,128.5429,269.0692,91.0116,-5.544e-05,-7.55e-06,0.0,0 STARLINK-5545,1 56476U 23064AE  24084.19740980 -.00000755  00000-0 -55440-4 0  9990,2 56476  69.9985 128.5429 0003064 269.0692  91.0116 14.98336113 48924,6950.174,96.107,574.169,569.909,0.0
56476.0,STARLINK-5545,PAYLOAD,2024-03-24 12:44:55,14.98343618,0.0003023,69.9985,127.7013,269.3558,90.7255,4.2755e-05,4.17e-06,0.0,0 STARLINK-5545,1 56476U 23064AE  24084.53120110  .00000417  00000-0  42755-4 0  9993,2 56476  69.9985 127.7013 0003023 269.3558  90.7255 14.98343618 48976,6950.151,96.106,574.117,569.915,0.0
56476.0,STARLINK-5545,PAYLOAD,2024-03-24 20:45:36,14.98328528,0.0002476,69.9995,126.8591,270.5946,89.4929,9.1145e-05,9.95e-06,0.0,0 STARLINK-5545,1 56476U 23064AE  24084.86501049  .00000995  00000-0  91145-4 0  9991,2 56476  69.9995 126.8591 0002476 270.5946  89.4929 14.98328528 49027,6950.197,96.107,573.783,570.342,0.0
56476.0,STARLINK-5545,PAYLOAD,2024-03-25 12:46:57,14.98325476,0.0002958,69.9988,125.1766,272.638,87.444,0.00015066,1.705e-05,0.0,0 STARLINK-5545,1 56476U 23064AE  24085.53261091  .00001705  00000-0  15066-3 0  9993,2 56476  69.9988 125.1766 0002958 272.6380  87.4440 14.98325476 48760,6950.207,96.107,574.128,570.016,0.0
56476.0,STARLINK-5545,PAYLOAD,2024-03-26 04:48:19,14.98323104,0.0002766,69.9994,123.4933,275.1661,84.9183,-0.00012423,-1.575e-05,0.0,0 STARLINK-5545,1 56476U 23064AE  24086.20022271 -.00001575  00000-0 -12423-3 0  9994,2 56476  69.9994 123.4933 0002766 275.1661  84.9183 14.98323104 49225,6950.214,96.107,574.002,570.157,0.0
56476.0,STARLINK-5545,PAYLOAD,2024-03-26 12:48:59,14.9832336,0.0002531,69.9994,122.6515,271.3979,88.689,-0.000171,-2.132e-05,0.0,0 STARLINK-5545,1 56476U 23064AE  24086.53402521 -.00002132  00000-0 -17100-3 0  9997,2 56476  69.9994 122.6515 0002531 271.3979  88.6890 14.98323360 48917,6950.213,96.107,573.838,570.319,0.0
56476.0,STARLINK-5545,PAYLOAD,2024-03-27 04:50:19,14.98328428,0.0002883,69.9988,120.9683,274.2131,85.8698,9.2915e-06,1.8e-07,0.0,0 STARLINK-5545,1 56476U 23064AE  24087.20161823  .00000018  00000-0  92915-5 0  9997,2 56476  69.9988 120.9683 0002883 274.2131  85.8698 14.98328428 49375,6950.198,96.107,574.066,570.059,0.0
56476.0,STARLINK-5545,PAYLOAD,2024-03-27 11:14:52,14.98329398,0.0002851,69.9988,120.2956,271.5988,88.4844,1.1816e-05,4.8e-07,0.0,0 STARLINK-5545,1 56476U 23064AE  24087.46865762  .00000048  00000-0  11816-4 0  9991,2 56476  69.9988 120.2956 0002851 271.5988  88.4844 14.98329398 49050,6950.195,96.107,574.041,570.078,0.0
56476.0,STARLINK-5545,PAYLOAD,2024-03-27 19:15:30,14.98373321,0.0003143,69.9988,119.452,264.1807,95.8994,-0.00044,-5.345e-05,0.0,0 STARLINK-5545,1 56476U 23064AE  24087.80243797 -.00005345  00000-0 -44000-3 0  9994,2 56476  69.9988 119.4520 0003143 264.1807  95.8994 14.98373321 49468,6950.059,96.104,574.108,569.74,0.0
56476.0,STARLINK-5545,PAYLOAD,2024-03-28 04:52:14,14.98387671,0.0002769,69.9992,118.4421,268.676,91.4082,0.0007806,9.247e-05,0.0,0 STARLINK-5545,1 56476U 23064AE  24088.20295039  .00009247  00000-0  78060-3 0  9991,2 56476  69.9992 118.4421 0002769 268.6760  91.4082 14.98387671 49522,6950.015,96.103,573.804,569.955,0.0
56476.0,STARLINK-5545,PAYLOAD,2024-03-28 12:53:00,14.98318101,0.00032,69.9982,117.601,269.8493,90.2299,-5.0711e-05,-6.98e-06,0.0,0 STARLINK-5545,1 56476U 23064AE  24088.53681308 -.00000698  00000-0 -50711-4 0  9992,2 56476  69.9982 117.6010 0003200 269.8493  90.2299 14.98318101 49577,6950.23,96.108,574.319,569.871,0.0
56476.0,STARLINK-5545,PAYLOAD,2024-03-28 19:17:32,14.98320216,0.0003131,69.9984,116.9276,269.8351,90.2449,-8.2515e-05,-1.077e-05,0.0,0 STARLINK-5545,1 56476U 23064AE  24088.80385276 -.00001077  00000-0 -82515-4 0  9996,2 56476  69.9984 116.9276 0003131 269.8351  90.2449 14.98320216 49253,6950.223,96.108,574.264,569.912,0.0
56476.0,STARLINK-5545,PAYLOAD,2024-03-29 04:54:15,14.98396339,0.0002453,69.9988,115.9163,233.1518,126.9417,0.00067617,7.998e-05,0.0,0 STARLINK-5545,1 56476U 23064AE  24089.20434237  .00007998  00000-0  67617-3 0  9994,2 56476  69.9988 115.9163 0002453 233.1518 126.9417 14.98396339 49673,6949.988,96.103,573.558,570.148,0.0
56476.0,STARLINK-5545,PAYLOAD,2024-03-29 11:18:52,14.98325251,0.0003002,69.9989,115.2433,266.9681,93.1135,-0.00013203,-1.668e-05,0.0,0 STARLINK-5545,1 56476U 23064AE  24089.47143978 -.00001668  00000-0 -13203-3 0  9994,2 56476  69.9989 115.2433 0003002 266.9681  93.1135 14.98325251 49715,6950.208,96.107,574.159,569.986,0.0
56476.0,STARLINK-5545,PAYLOAD,2024-03-29 19:19:32,14.98328559,0.0003029,69.9991,114.4022,265.8993,94.182,-0.00023873,-2.94e-05,0.0,0 STARLINK-5545,1 56476U 23064AE  24089.80523971 -.00002940  00000-0 -23873-3 0  9994,2 56476  69.9991 114.4022 0003029 265.8993  94.1820 14.98328559 49408,6950.197,96.107,574.168,569.957,0.0
56476.0,STARLINK-5545,PAYLOAD,2024-03-30 04:56:20,14.98353435,0.0003004,69.9989,113.3927,269.1236,90.9579,-0.00068051,-8.208e-05,0.0,0 STARLINK-5545,1 56476U 23064AE  24090.20579260 -.00008208  00000-0 -68051-3 0  9992,2 56476  69.9989 113.3927 0003004 269.1236  90.9579 14.98353435 49829,6950.12,96.105,574.073,569.898,0.0
56476.0,STARLINK-5545,PAYLOAD,2024-03-30 11:20:52,14.98346185,0.0003707,69.9987,112.7192,281.651,78.4233,-0.00058704,-7.094e-05,0.0,0 STARLINK-5545,1 56476U 23064AE  24090.47283167 -.00007094  00000-0 -58704-3 0  9995,2 56476  69.9987 112.7192 0003707 281.6510  78.4233 14.98346185 49505,6950.143,96.106,574.584,569.431,0.0
56476.0,STARLINK-5545,PAYLOAD,2024-03-30 19:21:33,14.98313472,0.0003161,69.9985,111.8777,271.2186,88.8611,-8.3152e-06,-1.92e-06,0.0,0 STARLINK-5545,1 56476U 23064AE  24090.80664029 -.00000192  00000-0 -83152-5 0  9991,2 56476  69.9985 111.8777 0003161 271.2186  88.8611 14.98313472 49913,6950.244,96.108,574.306,569.912,0.0
56476.0,STARLINK-5545,PAYLOAD,2024-03-31 11:22:53,14.98351418,0.0003005,69.9984,110.1944,269.9313,90.1501,-0.0006235,-7.529e-05,0.0,0 STARLINK-5545,1 56476U 23064AE  24091.47423451 -.00007529  00000-0 -62350-3 0  9993,2 56476  69.9984 110.1944 0003005 269.9313  90.1501 14.98351418 50012,6950.127,96.106,574.08,569.903,0.0
56476.0,STARLINK-5545,PAYLOAD,2024-04-01 03:24:15,14.98315181,0.0003187,69.9981,108.5111,271.7434,88.336,8.4228e-05,9.12e-06,0.0,0 STARLINK-5545,1 56476U 23064AE  24092.14184299  .00000912  00000-0  84228-4 0  9998,2 56476  69.9981 108.5111 0003187 271.7434  88.3360 14.98315181 50112,6950.239,96.108,574.319,569.889,0.0
56476.0,STARLINK-5545,PAYLOAD,2024-04-01 11:24:55,14.98317622,0.0003188,69.9982,107.6694,271.933,88.1464,9.0726e-05,9.89e-06,0.0,0 STARLINK-5545,1 56476U 23064AE  24092.47564429  .00000989  00000-0  90726-4 0  9995,2 56476  69.9982 107.6694 0003188 271.9330  88.1464 14.98317622 49806,6950.231,96.108,574.312,569.88,0.0
56476.0,STARLINK-5545,PAYLOAD,2024-04-02 03:26:21,14.98260789,0.0003113,69.9981,105.9863,272.3402,87.7401,-0.00058783,-7.087e-05,0.0,0 STARLINK-5545,1 56476U 23064AE  24093.14330113 -.00007087  00000-0 -58783-3 0  9995,2 56476  69.9981 105.9863 0003113 272.3402  87.7401 14.98260789 50266,6950.407,96.111,574.436,570.108,0.0
56476.0,STARLINK-5545,PAYLOAD,2024-04-02 11:26:58,14.98321139,0.0002928,69.998,105.1442,279.6114,80.4714,0.00011641,1.296e-05,0.0,0 STARLINK-5545,1 56476U 23064AE  24093.47706035  .00001296  00000-0  11641-3 0  9997,2 56476  69.9980 105.1442 0002928 279.6114  80.4714 14.98321139 50313,6950.22,96.108,574.12,570.05,0.0
